{
"type": "FeatureCollection",
"name": "Trein2",
"crs": { "type": "name", "properties": { "name": "urn:ogc:def:crs:OGC:1.3:CRS84" } },
"features": [
{ "type": "Feature", "properties": { "latitude": 50.906731, "longitude": 4.208422, "departures": "https:\/\/data.irail.be\/NMBS\/Liveboard\/Asse\/2018\/01\/07\/23\/56", "id": "BE.NMBS.008812070", "name": "Asse", "Station_NL": "Asse", "Station_FR": "Asse" }, "geometry": { "type": "Point", "coordinates": [ 4.208422, 50.906731 ] } },
{ "type": "Feature", "properties": { "latitude": 51.019236, "longitude": 4.153992, "departures": "https:\/\/data.irail.be\/NMBS\/Liveboard\/Baasrode South\/2018\/01\/07\/23\/56", "id": "BE.NMBS.008822160", "name": "Baasrode South", "Station_NL": "Baasrode-Zuid", "Station_FR": "Baesrode-Sud" }, "geometry": { "type": "Point", "coordinates": [ 4.153992, 51.019236 ] } },
{ "type": "Feature", "properties": { "latitude": 50.724184, "longitude": 4.621178, "departures": "https:\/\/data.irail.be\/NMBS\/Liveboard\/Basse Wavre\/2018\/01\/07\/23\/56", "id": "BE.NMBS.008811734", "name": "Basse Wavre", "Station_NL": "Basse-Wavre", "Station_FR": "Basse-Wavre" }, "geometry": { "type": "Point", "coordinates": [ 4.621178, 50.724184 ] } },
{ "type": "Feature", "properties": { "latitude": 50.766404, "longitude": 4.302274, "departures": "https:\/\/data.irail.be\/NMBS\/Liveboard\/Beersel\/2018\/01\/07\/23\/56", "id": "BE.NMBS.008814423", "name": "Beersel", "Station_NL": "Beersel", "Station_FR": "Beersel" }, "geometry": { "type": "Point", "coordinates": [ 4.302274, 50.766404 ] } },
{ "type": "Feature", "properties": { "latitude": 51.021972, "longitude": 4.800344, "departures": "https:\/\/data.irail.be\/NMBS\/Liveboard\/Begijnendijk\/2018\/01\/07\/23\/56", "id": "BE.NMBS.008821865", "name": "Begijnendijk", "Station_NL": "Begijnendijk", "Station_FR": "Begijnendijk" }, "geometry": { "type": "Point", "coordinates": [ 4.800344, 51.021972 ] } },
{ "type": "Feature", "properties": { "latitude": 50.707772, "longitude": 4.594753, "departures": "https:\/\/data.irail.be\/NMBS\/Liveboard\/Bierges Walibi\/2018\/01\/07\/23\/56", "id": "BE.NMBS.008811718", "name": "Bierges Walibi", "Station_NL": "Bierges-Walibi", "Station_FR": "Bierges-Walibi" }, "geometry": { "type": "Point", "coordinates": [ 4.594753, 50.707772 ] } },
{ "type": "Feature", "properties": { "latitude": 50.619447, "longitude": 4.636386, "departures": "https:\/\/data.irail.be\/NMBS\/Liveboard\/Blanmont\/2018\/01\/07\/23\/56", "id": "BE.NMBS.008861531", "name": "Blanmont", "Station_NL": "Blanmont", "Station_FR": "Blanmont" }, "geometry": { "type": "Point", "coordinates": [ 4.636386, 50.619447 ] } },
{ "type": "Feature", "properties": { "latitude": 50.879428, "longitude": 4.348507, "departures": "https:\/\/data.irail.be\/NMBS\/Liveboard\/Bockstael\/2018\/01\/07\/23\/56", "id": "BE.NMBS.008812021", "name": "Bockstael", "Station_NL": "Bockstael", "Station_FR": "Bockstael" }, "geometry": { "type": "Point", "coordinates": [ 4.348507, 50.879428 ] } },
{ "type": "Feature", "properties": { "latitude": 51.0375, "longitude": 4.772797, "departures": "https:\/\/data.irail.be\/NMBS\/Liveboard\/Booischot\/2018\/01\/07\/23\/56", "id": "BE.NMBS.008821857", "name": "Booischot", "Station_NL": "Booischot", "Station_FR": "Booischot" }, "geometry": { "type": "Point", "coordinates": [ 4.772797, 51.0375 ] } },
{ "type": "Feature", "properties": { "latitude": 50.801975, "longitude": 4.393523, "departures": "https:\/\/data.irail.be\/NMBS\/Liveboard\/Boondaal\/2018\/01\/07\/23\/56", "id": "BE.NMBS.008814456", "name": "Boondaal", "Station_NL": "Boondaal", "Station_FR": "Boondael" }, "geometry": { "type": "Point", "coordinates": [ 4.393523, 50.801975 ] } },
{ "type": "Feature", "properties": { "latitude": 50.98185, "longitude": 4.573897, "departures": "https:\/\/data.irail.be\/NMBS\/Liveboard\/Boortmeerbeek\/2018\/01\/07\/23\/56", "id": "BE.NMBS.008822475", "name": "Boortmeerbeek", "Station_NL": "Boortmeerbeek", "Station_FR": "Boortmeerbeek" }, "geometry": { "type": "Point", "coordinates": [ 4.573897, 50.98185 ] } },
{ "type": "Feature", "properties": { "latitude": 50.877782, "longitude": 4.409992, "departures": "https:\/\/data.irail.be\/NMBS\/Liveboard\/Bordet\/2018\/01\/07\/23\/56", "id": "BE.NMBS.008811163", "name": "Bordet", "Station_NL": "Bordet", "Station_FR": "Bordet" }, "geometry": { "type": "Point", "coordinates": [ 4.409992, 50.877782 ] } },
{ "type": "Feature", "properties": { "latitude": 50.794458, "longitude": 4.407986, "departures": "https:\/\/data.irail.be\/NMBS\/Liveboard\/Bosvoorde\/2018\/01\/07\/23\/56", "id": "BE.NMBS.008811437", "name": "Bosvoorde", "Station_NL": "Bosvoorde", "Station_FR": "Boitsfort" }, "geometry": { "type": "Point", "coordinates": [ 4.407986, 50.794458 ] } },
{ "type": "Feature", "properties": { "latitude": 50.845175, "longitude": 4.357131, "departures": "https:\/\/data.irail.be\/NMBS\/Liveboard\/Brussels Central\/2018\/01\/07\/23\/56", "id": "BE.NMBS.008813003", "name": "Brussels Central", "Station_NL": "Brussel-Centraal", "Station_FR": "Bruxelles-Central" }, "geometry": { "type": "Point", "coordinates": [ 4.357131, 50.845175 ] } },
{ "type": "Feature", "properties": { "latitude": 50.851671, "longitude": 4.362634, "departures": "https:\/\/data.irail.be\/NMBS\/Liveboard\/Brussels Congres\/2018\/01\/07\/23\/56", "id": "BE.NMBS.008813045", "name": "Brussels Congres", "Station_NL": "Brussel-Congres", "Station_FR": "Bruxelles-Congrès" }, "geometry": { "type": "Point", "coordinates": [ 4.362634, 50.851671 ] } },
{ "type": "Feature", "properties": { "latitude": 50.841131, "longitude": 4.347869, "departures": "https:\/\/data.irail.be\/NMBS\/Liveboard\/Brussels Chapelle\/2018\/01\/07\/23\/56", "id": "BE.NMBS.008813037", "name": "Brussels Chapelle", "Station_NL": "Brussel-Kapellekerk", "Station_FR": "Bruxelles-Chapelle" }, "geometry": { "type": "Point", "coordinates": [ 4.347869, 50.841131 ] } },
{ "type": "Feature", "properties": { "latitude": 50.83886, "longitude": 4.37382, "departures": "https:\/\/data.irail.be\/NMBS\/Liveboard\/Brussels Luxembourg\/2018\/01\/07\/23\/56", "id": "BE.NMBS.008811304", "name": "Brussels Luxembourg", "Station_NL": "Brussel-Luxemburg", "Station_FR": "Bruxelles-Luxembourg" }, "geometry": { "type": "Point", "coordinates": [ 4.37382, 50.83886 ] } },
{ "type": "Feature", "properties": { "latitude": 50.859658, "longitude": 4.360854, "departures": "https:\/\/data.irail.be\/NMBS\/Liveboard\/Brussels North\/2018\/01\/07\/23\/56", "id": "BE.NMBS.008812005", "name": "Brussels North", "Station_NL": "Brussel-Noord", "Station_FR": "Bruxelles-Nord" }, "geometry": { "type": "Point", "coordinates": [ 4.360854, 50.859658 ] } },
{ "type": "Feature", "properties": { "latitude": 50.901389, "longitude": 4.484444, "departures": "https:\/\/data.irail.be\/NMBS\/Liveboard\/Brussels Airport\/2018\/01\/07\/23\/56", "id": "BE.NMBS.008819406", "name": "Brussels Airport", "Station_NL": "Brussels Airport-Zaventem", "Station_FR": "Brussels Airport-Zaventem" }, "geometry": { "type": "Point", "coordinates": [ 4.484444, 50.901389 ] } },
{ "type": "Feature", "properties": { "latitude": 50.842851, "longitude": 4.380022, "departures": "https:\/\/data.irail.be\/NMBS\/Liveboard\/Brussels Schuman\/2018\/01\/07\/23\/56", "id": "BE.NMBS.008811916", "name": "Brussels Schuman", "Station_NL": "Brussel-Schuman", "Station_FR": "Bruxelles-Schuman" }, "geometry": { "type": "Point", "coordinates": [ 4.380022, 50.842851 ] } },
{ "type": "Feature", "properties": { "latitude": 50.836782, "longitude": 4.336922, "departures": "https:\/\/data.irail.be\/NMBS\/Liveboard\/Brussels South\/2018\/01\/07\/23\/56", "id": "BE.NMBS.008814001", "name": "Brussels South", "Station_NL": "Brussel-Zuid", "Station_FR": "Bruxelles-Midi" }, "geometry": { "type": "Point", "coordinates": [ 4.336922, 50.836782 ] } },
{ "type": "Feature", "properties": { "latitude": 50.908281, "longitude": 4.417053, "departures": "https:\/\/data.irail.be\/NMBS\/Liveboard\/Buda\/2018\/01\/07\/23\/56", "id": "BE.NMBS.008811148", "name": "Buda", "Station_NL": "Buda", "Station_FR": "Buda" }, "geometry": { "type": "Point", "coordinates": [ 4.417053, 50.908281 ] } },
{ "type": "Feature", "properties": { "latitude": 51.016228, "longitude": 4.200575, "departures": "https:\/\/data.irail.be\/NMBS\/Liveboard\/Buggenhout\/2018\/01\/07\/23\/56", "id": "BE.NMBS.008822145", "name": "Buggenhout", "Station_NL": "Buggenhout", "Station_FR": "Buggenhout" }, "geometry": { "type": "Point", "coordinates": [ 4.200575, 51.016228 ] } },
{ "type": "Feature", "properties": { "latitude": 50.751581, "longitude": 4.258561, "departures": "https:\/\/data.irail.be\/NMBS\/Liveboard\/Buizingen\/2018\/01\/07\/23\/56", "id": "BE.NMBS.008814340", "name": "Buizingen", "Station_NL": "Buizingen", "Station_FR": "Buizingen" }, "geometry": { "type": "Point", "coordinates": [ 4.258561, 50.751581 ] } },
{ "type": "Feature", "properties": { "latitude": 50.659325, "longitude": 4.568547, "departures": "https:\/\/data.irail.be\/NMBS\/Liveboard\/Ceroux Mousty\/2018\/01\/07\/23\/56", "id": "BE.NMBS.008811817", "name": "Ceroux Mousty", "Station_NL": "Céroux-Mousty", "Station_FR": "Céroux-Mousty" }, "geometry": { "type": "Point", "coordinates": [ 4.568547, 50.659325 ] } },
{ "type": "Feature", "properties": { "latitude": 50.557902, "longitude": 4.698662, "departures": "https:\/\/data.irail.be\/NMBS\/Liveboard\/Chapelle Dieu\/2018\/01\/07\/23\/56", "id": "BE.NMBS.008861317", "name": "Chapelle Dieu", "Station_NL": "Chapelle-Dieu", "Station_FR": "Chapelle-Dieu" }, "geometry": { "type": "Point", "coordinates": [ 4.698662, 50.557902 ] } },
{ "type": "Feature", "properties": { "latitude": 50.607464, "longitude": 4.649833, "departures": "https:\/\/data.irail.be\/NMBS\/Liveboard\/Chastre\/2018\/01\/07\/23\/56", "id": "BE.NMBS.008861523", "name": "Chastre", "Station_NL": "Chastre", "Station_FR": "Chastre" }, "geometry": { "type": "Point", "coordinates": [ 4.649833, 50.607464 ] } },
{ "type": "Feature", "properties": { "latitude": 50.645566, "longitude": 4.565819, "departures": "https:\/\/data.irail.be\/NMBS\/Liveboard\/Court Saint Etienne\/2018\/01\/07\/23\/56", "id": "BE.NMBS.008811825", "name": "Court Saint Etienne", "Station_NL": "Court-Saint-Étienne", "Station_FR": "Court-Saint-Étienne" }, "geometry": { "type": "Point", "coordinates": [ 4.565819, 50.645566 ] } },
{ "type": "Feature", "properties": { "latitude": 50.739181, "longitude": 4.370128, "departures": "https:\/\/data.irail.be\/NMBS\/Liveboard\/De Hoek\/2018\/01\/07\/23\/56", "id": "BE.NMBS.008814175", "name": "De Hoek", "Station_NL": "De Hoek", "Station_FR": "De Hoek" }, "geometry": { "type": "Point", "coordinates": [ 4.370128, 50.739181 ] } },
{ "type": "Feature", "properties": { "latitude": 50.819281, "longitude": 4.403972, "departures": "https:\/\/data.irail.be\/NMBS\/Liveboard\/Delta\/2018\/01\/07\/23\/56", "id": "BE.NMBS.008811205", "name": "Delta", "Station_NL": "Delta", "Station_FR": "Delta" }, "geometry": { "type": "Point", "coordinates": [ 4.403972, 50.819281 ] } },
{ "type": "Feature", "properties": { "latitude": 50.890481, "longitude": 4.441931, "departures": "https:\/\/data.irail.be\/NMBS\/Liveboard\/Diegem\/2018\/01\/07\/23\/56", "id": "BE.NMBS.008811213", "name": "Diegem", "Station_NL": "Diegem", "Station_FR": "Diegem" }, "geometry": { "type": "Point", "coordinates": [ 4.441931, 50.890481 ] } },
{ "type": "Feature", "properties": { "latitude": 50.866731, "longitude": 4.243389, "departures": "https:\/\/data.irail.be\/NMBS\/Liveboard\/Dilbeek\/2018\/01\/07\/23\/56", "id": "BE.NMBS.008812237", "name": "Dilbeek", "Station_NL": "Dilbeek", "Station_FR": "Dilbeek" }, "geometry": { "type": "Point", "coordinates": [ 4.243389, 50.866731 ] } },
{ "type": "Feature", "properties": { "latitude": 50.5621, "longitude": 4.156094, "departures": "https:\/\/data.irail.be\/NMBS\/Liveboard\/Ecaussinnes\/2018\/01\/07\/23\/56", "id": "BE.NMBS.008883212", "name": "Ecaussinnes", "Station_NL": "Écaussinnes", "Station_FR": "Écaussinnes" }, "geometry": { "type": "Point", "coordinates": [ 4.156094, 50.5621 ] } },
{ "type": "Feature", "properties": { "latitude": 50.754337, "longitude": 4.662366, "departures": "https:\/\/data.irail.be\/NMBS\/Liveboard\/Eerken\/2018\/01\/07\/23\/56", "id": "BE.NMBS.008811759", "name": "Eerken", "Station_NL": "Eerken", "Station_FR": "Archennes" }, "geometry": { "type": "Point", "coordinates": [ 4.662366, 50.754337 ] } },
{ "type": "Feature", "properties": { "latitude": 50.684778, "longitude": 4.375525, "departures": "https:\/\/data.irail.be\/NMBS\/Liveboard\/Eigenbrakel\/2018\/01\/07\/23\/56", "id": "BE.NMBS.008814258", "name": "Eigenbrakel", "Station_NL": "Eigenbrakel", "Station_FR": "Braine-l'Alleud" }, "geometry": { "type": "Point", "coordinates": [ 4.375525, 50.684778 ] } },
{ "type": "Feature", "properties": { "latitude": 50.9584, "longitude": 4.457486, "departures": "https:\/\/data.irail.be\/NMBS\/Liveboard\/Eppegem\/2018\/01\/07\/23\/56", "id": "BE.NMBS.008822269", "name": "Eppegem", "Station_NL": "Eppegem", "Station_FR": "Eppegem" }, "geometry": { "type": "Point", "coordinates": [ 4.457486, 50.9584 ] } },
{ "type": "Feature", "properties": { "latitude": 50.592412, "longitude": 4.667119, "departures": "https:\/\/data.irail.be\/NMBS\/Liveboard\/Ernage\/2018\/01\/07\/23\/56", "id": "BE.NMBS.008861515", "name": "Ernage", "Station_NL": "Ernage", "Station_FR": "Ernage" }, "geometry": { "type": "Point", "coordinates": [ 4.667119, 50.592412 ] } },
{ "type": "Feature", "properties": { "latitude": 50.896506, "longitude": 4.584997, "departures": "https:\/\/data.irail.be\/NMBS\/Liveboard\/Erps Kwerps\/2018\/01\/07\/23\/56", "id": "BE.NMBS.008811262", "name": "Erps Kwerps", "Station_NL": "Erps-Kwerps", "Station_FR": "Erps-Kwerps" }, "geometry": { "type": "Point", "coordinates": [ 4.584997, 50.896506 ] } },
{ "type": "Feature", "properties": { "latitude": 50.882447, "longitude": 4.115169, "departures": "https:\/\/data.irail.be\/NMBS\/Liveboard\/Essene Lombeek\/2018\/01\/07\/23\/56", "id": "BE.NMBS.008812260", "name": "Essene Lombeek", "Station_NL": "Essene-Lombeek", "Station_FR": "Essene-Lombeek" }, "geometry": { "type": "Point", "coordinates": [ 4.115169, 50.882447 ] } },
{ "type": "Feature", "properties": { "latitude": 50.821208, "longitude": 4.390222, "departures": "https:\/\/data.irail.be\/NMBS\/Liveboard\/Etterbeek\/2018\/01\/07\/23\/56", "id": "BE.NMBS.008811411", "name": "Etterbeek", "Station_NL": "Etterbeek", "Station_FR": "Etterbeek" }, "geometry": { "type": "Point", "coordinates": [ 4.390222, 50.821208 ] } },
{ "type": "Feature", "properties": { "latitude": 50.868281, "longitude": 4.4012, "departures": "https:\/\/data.irail.be\/NMBS\/Liveboard\/Evere\/2018\/01\/07\/23\/56", "id": "BE.NMBS.008811106", "name": "Evere", "Station_NL": "Evere", "Station_FR": "Evere" }, "geometry": { "type": "Point", "coordinates": [ 4.4012, 50.868281 ] } },
{ "type": "Feature", "properties": { "latitude": 50.621833, "longitude": 4.549264, "departures": "https:\/\/data.irail.be\/NMBS\/Liveboard\/Faux\/2018\/01\/07\/23\/56", "id": "BE.NMBS.008872611", "name": "Faux", "Station_NL": "Faux", "Station_FR": "Faux" }, "geometry": { "type": "Point", "coordinates": [ 4.549264, 50.621833 ] } },
{ "type": "Feature", "properties": { "latitude": 50.761503, "longitude": 4.653873, "departures": "https:\/\/data.irail.be\/NMBS\/Liveboard\/Florival\/2018\/01\/07\/23\/56", "id": "BE.NMBS.008811767", "name": "Florival", "Station_NL": "Florival", "Station_FR": "Florival" }, "geometry": { "type": "Point", "coordinates": [ 4.653873, 50.761503 ] } },
{ "type": "Feature", "properties": { "latitude": 50.736647, "longitude": 4.649597, "departures": "https:\/\/data.irail.be\/NMBS\/Liveboard\/Gastuche\/2018\/01\/07\/23\/56", "id": "BE.NMBS.008811742", "name": "Gastuche", "Station_NL": "Gastuche", "Station_FR": "Gastuche" }, "geometry": { "type": "Point", "coordinates": [ 4.649597, 50.736647 ] } },
{ "type": "Feature", "properties": { "latitude": 50.571292, "longitude": 4.690778, "departures": "https:\/\/data.irail.be\/NMBS\/Liveboard\/Gembloux\/2018\/01\/07\/23\/56", "id": "BE.NMBS.008861200", "name": "Gembloux", "Station_NL": "Gembloers", "Station_FR": "Gembloux" }, "geometry": { "type": "Point", "coordinates": [ 4.690778, 50.571292 ] } },
{ "type": "Feature", "properties": { "latitude": 50.726408, "longitude": 4.513725, "departures": "https:\/\/data.irail.be\/NMBS\/Liveboard\/Genval\/2018\/01\/07\/23\/56", "id": "BE.NMBS.008811528", "name": "Genval", "Station_NL": "Genval", "Station_FR": "Genval" }, "geometry": { "type": "Point", "coordinates": [ 4.513725, 50.726408 ] } },
{ "type": "Feature", "properties": { "latitude": 50.76614, "longitude": 4.44935, "departures": "https:\/\/data.irail.be\/NMBS\/Liveboard\/Groenendaal\/2018\/01\/07\/23\/56", "id": "BE.NMBS.008811445", "name": "Groenendaal", "Station_NL": "Groenendaal", "Station_FR": "Groenendael" }, "geometry": { "type": "Point", "coordinates": [ 4.44935, 50.76614 ] } },
{ "type": "Feature", "properties": { "latitude": 50.868231, "longitude": 4.27455, "departures": "https:\/\/data.irail.be\/NMBS\/Liveboard\/Groot Bijgaarden\/2018\/01\/07\/23\/56", "id": "BE.NMBS.008812229", "name": "Groot Bijgaarden", "Station_NL": "Groot-Bijgaarden", "Station_FR": "Grand-Bigard" }, "geometry": { "type": "Point", "coordinates": [ 4.27455, 50.868231 ] } },
{ "type": "Feature", "properties": { "latitude": 50.966238, "longitude": 4.613314, "departures": "https:\/\/data.irail.be\/NMBS\/Liveboard\/Haacht\/2018\/01\/07\/23\/56", "id": "BE.NMBS.008822517", "name": "Haacht", "Station_NL": "Haacht", "Station_FR": "Haacht" }, "geometry": { "type": "Point", "coordinates": [ 4.613314, 50.966238 ] } },
{ "type": "Feature", "properties": { "latitude": 50.7332, "longitude": 4.2395, "departures": "https:\/\/data.irail.be\/NMBS\/Liveboard\/Halle\/2018\/01\/07\/23\/56", "id": "BE.NMBS.008814308", "name": "Halle", "Station_NL": "Halle", "Station_FR": "Hal" }, "geometry": { "type": "Point", "coordinates": [ 4.2395, 50.7332 ] } },
{ "type": "Feature", "properties": { "latitude": 50.944247, "longitude": 4.663011, "departures": "https:\/\/data.irail.be\/NMBS\/Liveboard\/Hambos\/2018\/01\/07\/23\/56", "id": "BE.NMBS.008822533", "name": "Hambos", "Station_NL": "Hambos", "Station_FR": "Hambos" }, "geometry": { "type": "Point", "coordinates": [ 4.663011, 50.944247 ] } },
{ "type": "Feature", "properties": { "latitude": 50.889231, "longitude": 4.419825, "departures": "https:\/\/data.irail.be\/NMBS\/Liveboard\/Haren\/2018\/01\/07\/23\/56", "id": "BE.NMBS.008811155", "name": "Haren", "Station_NL": "Haren", "Station_FR": "Haren" }, "geometry": { "type": "Point", "coordinates": [ 4.419825, 50.889231 ] } },
{ "type": "Feature", "properties": { "latitude": 50.889567, "longitude": 4.415109, "departures": "https:\/\/data.irail.be\/NMBS\/Liveboard\/Haren South\/2018\/01\/07\/23\/56", "id": "BE.NMBS.008811130", "name": "Haren South", "Station_NL": "Haren-Zuid", "Station_FR": "Haren-Sud" }, "geometry": { "type": "Point", "coordinates": [ 4.415109, 50.889567 ] } },
{ "type": "Feature", "properties": { "latitude": 50.988814, "longitude": 4.157117, "departures": "https:\/\/data.irail.be\/NMBS\/Liveboard\/Heizijde\/2018\/01\/07\/23\/56", "id": "BE.NMBS.008812153", "name": "Heizijde", "Station_NL": "Heizijde", "Station_FR": "Heizijde" }, "geometry": { "type": "Point", "coordinates": [ 4.157117, 50.988814 ] } },
{ "type": "Feature", "properties": { "latitude": 50.651008, "longitude": 4.175892, "departures": "https:\/\/data.irail.be\/NMBS\/Liveboard\/Hennuyeres\/2018\/01\/07\/23\/56", "id": "BE.NMBS.008883022", "name": "Hennuyeres", "Station_NL": "Hennuyères", "Station_FR": "Hennuyères" }, "geometry": { "type": "Point", "coordinates": [ 4.175892, 50.651008 ] } },
{ "type": "Feature", "properties": { "latitude": 50.903528, "longitude": 4.672189, "departures": "https:\/\/data.irail.be\/NMBS\/Liveboard\/Herent\/2018\/01\/07\/23\/56", "id": "BE.NMBS.008811288", "name": "Herent", "Station_NL": "Herent", "Station_FR": "Herent" }, "geometry": { "type": "Point", "coordinates": [ 4.672189, 50.903528 ] } },
{ "type": "Feature", "properties": { "latitude": 50.996904, "longitude": 4.539585, "departures": "https:\/\/data.irail.be\/NMBS\/Liveboard\/Hever\/2018\/01\/07\/23\/56", "id": "BE.NMBS.008822459", "name": "Hever", "Station_NL": "Hever", "Station_FR": "Hever" }, "geometry": { "type": "Point", "coordinates": [ 4.539585, 50.996904 ] } },
{ "type": "Feature", "properties": { "latitude": 50.862442, "longitude": 4.694414, "departures": "https:\/\/data.irail.be\/NMBS\/Liveboard\/Heverlee\/2018\/01\/07\/23\/56", "id": "BE.NMBS.008833126", "name": "Heverlee", "Station_NL": "Heverlee", "Station_FR": "Heverlee" }, "geometry": { "type": "Point", "coordinates": [ 4.694414, 50.862442 ] } },
{ "type": "Feature", "properties": { "latitude": 50.760158, "longitude": 4.467406, "departures": "https:\/\/data.irail.be\/NMBS\/Liveboard\/Hoeilaart\/2018\/01\/07\/23\/56", "id": "BE.NMBS.008811460", "name": "Hoeilaart", "Station_NL": "Hoeilaart", "Station_FR": "Hoeilaart" }, "geometry": { "type": "Point", "coordinates": [ 4.467406, 50.760158 ] } },
{ "type": "Feature", "properties": { "latitude": 50.988661, "longitude": 4.498342, "departures": "https:\/\/data.irail.be\/NMBS\/Liveboard\/Hofstade\/2018\/01\/07\/23\/56", "id": "BE.NMBS.008822277", "name": "Hofstade", "Station_NL": "Hofstade", "Station_FR": "Hofstade" }, "geometry": { "type": "Point", "coordinates": [ 4.498342, 50.988661 ] } },
{ "type": "Feature", "properties": { "latitude": 50.767081, "longitude": 4.354914, "departures": "https:\/\/data.irail.be\/NMBS\/Liveboard\/Holleken\/2018\/01\/07\/23\/56", "id": "BE.NMBS.008814159", "name": "Holleken", "Station_NL": "Holleken", "Station_FR": "Holleken" }, "geometry": { "type": "Point", "coordinates": [ 4.354914, 50.767081 ] } },
{ "type": "Feature", "properties": { "latitude": 50.75171, "longitude": 4.265581, "departures": "https:\/\/data.irail.be\/NMBS\/Liveboard\/Huizingen\/2018\/01\/07\/23\/56", "id": "BE.NMBS.008814415", "name": "Huizingen", "Station_NL": "Huizingen", "Station_FR": "Huizingen" }, "geometry": { "type": "Point", "coordinates": [ 4.265581, 50.75171 ] } },
{ "type": "Feature", "properties": { "latitude": 50.88091, "longitude": 4.328463, "departures": "https:\/\/data.irail.be\/NMBS\/Liveboard\/Jette\/2018\/01\/07\/23\/56", "id": "BE.NMBS.008812047", "name": "Jette", "Station_NL": "Jette", "Station_FR": "Jette" }, "geometry": { "type": "Point", "coordinates": [ 4.328463, 50.88091 ] } },
{ "type": "Feature", "properties": { "latitude": 51.010795, "longitude": 4.358819, "departures": "https:\/\/data.irail.be\/NMBS\/Liveboard\/Kapelle Op Den Bos\/2018\/01\/07\/23\/56", "id": "BE.NMBS.008822053", "name": "Kapelle Op Den Bos", "Station_NL": "Kapelle-op-den-Bos", "Station_FR": "Kapelle-op-den-Bos" }, "geometry": { "type": "Point", "coordinates": [ 4.358819, 51.010795 ] } },
{ "type": "Feature", "properties": { "latitude": 50.893072, "longitude": 4.543297, "departures": "https:\/\/data.irail.be\/NMBS\/Liveboard\/Kortenberg\/2018\/01\/07\/23\/56", "id": "BE.NMBS.008811254", "name": "Kortenberg", "Station_NL": "Kortenberg", "Station_FR": "Kortenberg" }, "geometry": { "type": "Point", "coordinates": [ 4.543297, 50.893072 ] } },
{ "type": "Feature", "properties": { "latitude": 51.004606, "longitude": 4.134544, "departures": "https:\/\/data.irail.be\/NMBS\/Liveboard\/Lebbeke\/2018\/01\/07\/23\/56", "id": "BE.NMBS.008812161", "name": "Lebbeke", "Station_NL": "Lebbeke", "Station_FR": "Lebbeke" }, "geometry": { "type": "Point", "coordinates": [ 4.134544, 51.004606 ] } },
{ "type": "Feature", "properties": { "latitude": 50.715108, "longitude": 4.221581, "departures": "https:\/\/data.irail.be\/NMBS\/Liveboard\/Lembeek\/2018\/01\/07\/23\/56", "id": "BE.NMBS.008814332", "name": "Lembeek", "Station_NL": "Lembeek", "Station_FR": "Lembeek" }, "geometry": { "type": "Point", "coordinates": [ 4.221581, 50.715108 ] } },
{ "type": "Feature", "properties": { "latitude": 50.881356, "longitude": 4.716096, "departures": "https:\/\/data.irail.be\/NMBS\/Liveboard\/Leuven\/2018\/01\/07\/23\/56", "id": "BE.NMBS.008833001", "name": "Leuven", "Station_NL": "Leuven", "Station_FR": "Louvain" }, "geometry": { "type": "Point", "coordinates": [ 4.716096, 50.881356 ] } },
{ "type": "Feature", "properties": { "latitude": 50.643742, "longitude": 4.363247, "departures": "https:\/\/data.irail.be\/NMBS\/Liveboard\/Lillois\/2018\/01\/07\/23\/56", "id": "BE.NMBS.008814241", "name": "Lillois", "Station_NL": "Lillois", "Station_FR": "Lillois" }, "geometry": { "type": "Point", "coordinates": [ 4.363247, 50.643742 ] } },
{ "type": "Feature", "properties": { "latitude": 50.692144, "longitude": 4.575297, "departures": "https:\/\/data.irail.be\/NMBS\/Liveboard\/Limal\/2018\/01\/07\/23\/56", "id": "BE.NMBS.008811635", "name": "Limal", "Station_NL": "Limal", "Station_FR": "Limal" }, "geometry": { "type": "Point", "coordinates": [ 4.575297, 50.692144 ] } },
{ "type": "Feature", "properties": { "latitude": 50.773331, "longitude": 4.339781, "departures": "https:\/\/data.irail.be\/NMBS\/Liveboard\/Linkebeek\/2018\/01\/07\/23\/56", "id": "BE.NMBS.008814142", "name": "Linkebeek", "Station_NL": "Linkebeek", "Station_FR": "Linkebeek" }, "geometry": { "type": "Point", "coordinates": [ 4.339781, 50.773331 ] } },
{ "type": "Feature", "properties": { "latitude": 51.009519, "longitude": 4.296936, "departures": "https:\/\/data.irail.be\/NMBS\/Liveboard\/Londerzeel\/2018\/01\/07\/23\/56", "id": "BE.NMBS.008822111", "name": "Londerzeel", "Station_NL": "Londerzeel", "Station_FR": "Londerzeel" }, "geometry": { "type": "Point", "coordinates": [ 4.296936, 51.009519 ] } },
{ "type": "Feature", "properties": { "latitude": 50.765175, "longitude": 4.272426, "departures": "https:\/\/data.irail.be\/NMBS\/Liveboard\/Lot\/2018\/01\/07\/23\/56", "id": "BE.NMBS.008814357", "name": "Lot", "Station_NL": "Lot", "Station_FR": "Lot" }, "geometry": { "type": "Point", "coordinates": [ 4.272426, 50.765175 ] } },
{ "type": "Feature", "properties": { "latitude": 51.014325, "longitude": 4.231403, "departures": "https:\/\/data.irail.be\/NMBS\/Liveboard\/Malderen\/2018\/01\/07\/23\/56", "id": "BE.NMBS.008822137", "name": "Malderen", "Station_NL": "Malderen", "Station_FR": "Malderen" }, "geometry": { "type": "Point", "coordinates": [ 4.231403, 51.014325 ] } },
{ "type": "Feature", "properties": { "latitude": 51.01758, "longitude": 4.48313, "departures": "https:\/\/data.irail.be\/NMBS\/Liveboard\/Malines\/2018\/01\/07\/23\/56", "id": "BE.NMBS.008822004", "name": "Malines", "Station_NL": "Mechelen", "Station_FR": "Malines" }, "geometry": { "type": "Point", "coordinates": [ 4.48313, 51.01758 ] } },
{ "type": "Feature", "properties": { "latitude": 51.030012, "longitude": 4.489986, "departures": "https:\/\/data.irail.be\/NMBS\/Liveboard\/Malines Nekkerspoel\/2018\/01\/07\/23\/56", "id": "BE.NMBS.008822343", "name": "Malines Nekkerspoel", "Station_NL": "Mechelen-Nekkerspoel", "Station_FR": "Malines-Nekkerspoel" }, "geometry": { "type": "Point", "coordinates": [ 4.489986, 51.030012 ] } },
{ "type": "Feature", "properties": { "latitude": 50.854558, "longitude": 4.394025, "departures": "https:\/\/data.irail.be\/NMBS\/Liveboard\/Meiser\/2018\/01\/07\/23\/56", "id": "BE.NMBS.008811171", "name": "Meiser", "Station_NL": "Meiser", "Station_FR": "Meiser" }, "geometry": { "type": "Point", "coordinates": [ 4.394025, 50.854558 ] } },
{ "type": "Feature", "properties": { "latitude": 50.953853, "longitude": 4.223492, "departures": "https:\/\/data.irail.be\/NMBS\/Liveboard\/Merchtem\/2018\/01\/07\/23\/56", "id": "BE.NMBS.008812120", "name": "Merchtem", "Station_NL": "Merchtem", "Station_FR": "Merchtem" }, "geometry": { "type": "Point", "coordinates": [ 4.223492, 50.953853 ] } },
{ "type": "Feature", "properties": { "latitude": 50.839881, "longitude": 4.399058, "departures": "https:\/\/data.irail.be\/NMBS\/Liveboard\/Merode\/2018\/01\/07\/23\/56", "id": "BE.NMBS.008811197", "name": "Merode", "Station_NL": "Merode", "Station_FR": "Merode" }, "geometry": { "type": "Point", "coordinates": [ 4.399058, 50.839881 ] } },
{ "type": "Feature", "properties": { "latitude": 50.777909, "longitude": 4.32979, "departures": "https:\/\/data.irail.be\/NMBS\/Liveboard\/Moensberg\/2018\/01\/07\/23\/56", "id": "BE.NMBS.008814431", "name": "Moensberg", "Station_NL": "Moensberg", "Station_FR": "Moensberg" }, "geometry": { "type": "Point", "coordinates": [ 4.32979, 50.777909 ] } },
{ "type": "Feature", "properties": { "latitude": 50.932808, "longitude": 4.21675, "departures": "https:\/\/data.irail.be\/NMBS\/Liveboard\/Mollem\/2018\/01\/07\/23\/56", "id": "BE.NMBS.008812112", "name": "Mollem", "Station_NL": "Mollem", "Station_FR": "Mollem" }, "geometry": { "type": "Point", "coordinates": [ 4.21675, 50.932808 ] } },
{ "type": "Feature", "properties": { "latitude": 50.638214, "longitude": 4.612581, "departures": "https:\/\/data.irail.be\/NMBS\/Liveboard\/Mont Saint Guibert\/2018\/01\/07\/23\/56", "id": "BE.NMBS.008861549", "name": "Mont Saint Guibert", "Station_NL": "Mont-Saint-Guibert", "Station_FR": "Mont-Saint-Guibert" }, "geometry": { "type": "Point", "coordinates": [ 4.612581, 50.638214 ] } },
{ "type": "Feature", "properties": { "latitude": 51.008203, "longitude": 4.513839, "departures": "https:\/\/data.irail.be\/NMBS\/Liveboard\/Muizen\/2018\/01\/07\/23\/56", "id": "BE.NMBS.008822426", "name": "Muizen", "Station_NL": "Muizen", "Station_FR": "Muizen" }, "geometry": { "type": "Point", "coordinates": [ 4.513839, 51.008203 ] } },
{ "type": "Feature", "properties": { "latitude": 50.600536, "longitude": 4.334678, "departures": "https:\/\/data.irail.be\/NMBS\/Liveboard\/Nijvel\/2018\/01\/07\/23\/56", "id": "BE.NMBS.008814209", "name": "Nijvel", "Station_NL": "Nijvel", "Station_FR": "Nivelles" }, "geometry": { "type": "Point", "coordinates": [ 4.334678, 50.600536 ] } },
{ "type": "Feature", "properties": { "latitude": 50.883308, "longitude": 4.506108, "departures": "https:\/\/data.irail.be\/NMBS\/Liveboard\/Nossegem\/2018\/01\/07\/23\/56", "id": "BE.NMBS.008811247", "name": "Nossegem", "Station_NL": "Nossegem", "Station_FR": "Nossegem" }, "geometry": { "type": "Point", "coordinates": [ 4.506108, 50.883308 ] } },
{ "type": "Feature", "properties": { "latitude": 50.974503, "longitude": 4.187442, "departures": "https:\/\/data.irail.be\/NMBS\/Liveboard\/Opwijk\/2018\/01\/07\/23\/56", "id": "BE.NMBS.008812146", "name": "Opwijk", "Station_NL": "Opwijk", "Station_FR": "Opwijk" }, "geometry": { "type": "Point", "coordinates": [ 4.187442, 50.974503 ] } },
{ "type": "Feature", "properties": { "latitude": 50.671632, "longitude": 4.569615, "departures": "https:\/\/data.irail.be\/NMBS\/Liveboard\/Ottignies\/2018\/01\/07\/23\/56", "id": "BE.NMBS.008811601", "name": "Ottignies", "Station_NL": "Ottignies", "Station_FR": "Ottignies" }, "geometry": { "type": "Point", "coordinates": [ 4.569615, 50.671632 ] } },
{ "type": "Feature", "properties": { "latitude": 50.835928, "longitude": 4.653306, "departures": "https:\/\/data.irail.be\/NMBS\/Liveboard\/Oud Heverlee\/2018\/01\/07\/23\/56", "id": "BE.NMBS.008833134", "name": "Oud Heverlee", "Station_NL": "Oud-Heverlee", "Station_FR": "Oud-Heverlee" }, "geometry": { "type": "Point", "coordinates": [ 4.653306, 50.835928 ] } },
{ "type": "Feature", "properties": { "latitude": 50.779208, "longitude": 4.651031, "departures": "https:\/\/data.irail.be\/NMBS\/Liveboard\/Pecrot\/2018\/01\/07\/23\/56", "id": "BE.NMBS.008811775", "name": "Pecrot", "Station_NL": "Pécrot", "Station_FR": "Pécrot" }, "geometry": { "type": "Point", "coordinates": [ 4.651031, 50.779208 ] } },
{ "type": "Feature", "properties": { "latitude": 50.693761, "longitude": 4.54915, "departures": "https:\/\/data.irail.be\/NMBS\/Liveboard\/Profondsart\/2018\/01\/07\/23\/56", "id": "BE.NMBS.008811544", "name": "Profondsart", "Station_NL": "Profondsart", "Station_FR": "Profondsart" }, "geometry": { "type": "Point", "coordinates": [ 4.54915, 50.693761 ] } },
{ "type": "Feature", "properties": { "latitude": 50.711414, "longitude": 4.532861, "departures": "https:\/\/data.irail.be\/NMBS\/Liveboard\/Rixensart\/2018\/01\/07\/23\/56", "id": "BE.NMBS.008811536", "name": "Rixensart", "Station_NL": "Rixensart", "Station_FR": "Rixensart" }, "geometry": { "type": "Point", "coordinates": [ 4.532861, 50.711414 ] } },
{ "type": "Feature", "properties": { "latitude": 50.791831, "longitude": 4.295328, "departures": "https:\/\/data.irail.be\/NMBS\/Liveboard\/Ruisbroek\/2018\/01\/07\/23\/56", "id": "BE.NMBS.008814365", "name": "Ruisbroek", "Station_NL": "Ruisbroek", "Station_FR": "Ruysbroeck" }, "geometry": { "type": "Point", "coordinates": [ 4.295328, 50.791831 ] } },
{ "type": "Feature", "properties": { "latitude": 50.605075, "longitude": 4.137658, "departures": "https:\/\/data.irail.be\/NMBS\/Liveboard\/Braine Le Comte\/2018\/01\/07\/23\/56", "id": "BE.NMBS.008883006", "name": "Braine Le Comte", "Station_NL": "'s Gravenbrakel", "Station_FR": "Braine-le-Comte" }, "geometry": { "type": "Point", "coordinates": [ 4.137658, 50.605075 ] } },
{ "type": "Feature", "properties": { "latitude": 50.878508, "longitude": 4.378644, "departures": "https:\/\/data.irail.be\/NMBS\/Liveboard\/Schaarbeek\/2018\/01\/07\/23\/56", "id": "BE.NMBS.008811007", "name": "Schaarbeek", "Station_NL": "Schaarbeek", "Station_FR": "Schaerbeek" }, "geometry": { "type": "Point", "coordinates": [ 4.378644, 50.878508 ] } },
{ "type": "Feature", "properties": { "latitude": 50.863056, "longitude": 4.330556, "departures": "https:\/\/data.irail.be\/NMBS\/Liveboard\/Simonis\/2018\/01\/07\/23\/56", "id": "BE.NMBS.00101", "name": "Simonis", "Station_NL": "Simonis", "Station_FR": "Simonis" }, "geometry": { "type": "Point", "coordinates": [ 4.330556, 50.863056 ] } },
{ "type": "Feature", "properties": { "latitude": 50.872831, "longitude": 4.290961, "departures": "https:\/\/data.irail.be\/NMBS\/Liveboard\/Sint Agatha Berchem\/2018\/01\/07\/23\/56", "id": "BE.NMBS.008812211", "name": "Sint Agatha Berchem", "Station_NL": "Sint-Agatha-Berchem", "Station_FR": "Berchem-Sainte-Agathe" }, "geometry": { "type": "Point", "coordinates": [ 4.290961, 50.872831 ] } },
{ "type": "Feature", "properties": { "latitude": 50.748081, "longitude": 4.361492, "departures": "https:\/\/data.irail.be\/NMBS\/Liveboard\/Rhode Saint Genese\/2018\/01\/07\/23\/56", "id": "BE.NMBS.008814167", "name": "Rhode Saint Genese", "Station_NL": "Sint-Genesius-Rode", "Station_FR": "Rhode-Saint-Genèse" }, "geometry": { "type": "Point", "coordinates": [ 4.361492, 50.748081 ] } },
{ "type": "Feature", "properties": { "latitude": 51.021925, "longitude": 4.11715, "departures": "https:\/\/data.irail.be\/NMBS\/Liveboard\/Sint Gillis\/2018\/01\/07\/23\/56", "id": "BE.NMBS.008893443", "name": "Sint Gillis", "Station_NL": "Sint-Gillis", "Station_FR": "Saint-Gilles" }, "geometry": { "type": "Point", "coordinates": [ 4.11715, 51.021925 ] } },
{ "type": "Feature", "properties": { "latitude": 50.79362, "longitude": 4.360403, "departures": "https:\/\/data.irail.be\/NMBS\/Liveboard\/Saint Job\/2018\/01\/07\/23\/56", "id": "BE.NMBS.008814449", "name": "Saint Job", "Station_NL": "Sint-Job", "Station_FR": "Saint-Job" }, "geometry": { "type": "Point", "coordinates": [ 4.360403, 50.79362 ] } },
{ "type": "Feature", "properties": { "latitude": 50.8013, "longitude": 4.65195, "departures": "https:\/\/data.irail.be\/NMBS\/Liveboard\/Sint Joris Weert\/2018\/01\/07\/23\/56", "id": "BE.NMBS.008833159", "name": "Sint Joris Weert", "Station_NL": "Sint-Joris-Weert", "Station_FR": "Sint-Joris-Weert" }, "geometry": { "type": "Point", "coordinates": [ 4.65195, 50.8013 ] } },
{ "type": "Feature", "properties": { "latitude": 50.867158, "longitude": 4.205081, "departures": "https:\/\/data.irail.be\/NMBS\/Liveboard\/Sint Martens Bodegem\/2018\/01\/07\/23\/56", "id": "BE.NMBS.008812245", "name": "Sint Martens Bodegem", "Station_NL": "Sint-Martens-Bodegem", "Station_FR": "Sint-Martens-Bodegem" }, "geometry": { "type": "Point", "coordinates": [ 4.205081, 50.867158 ] } },
{ "type": "Feature", "properties": { "latitude": 50.737958, "longitude": 4.497064, "departures": "https:\/\/data.irail.be\/NMBS\/Liveboard\/Terhulpen\/2018\/01\/07\/23\/56", "id": "BE.NMBS.008811510", "name": "Terhulpen", "Station_NL": "Terhulpen", "Station_FR": "La Hulpe" }, "geometry": { "type": "Point", "coordinates": [ 4.497064, 50.737958 ] } },
{ "type": "Feature", "properties": { "latitude": 50.874519, "longitude": 4.165342, "departures": "https:\/\/data.irail.be\/NMBS\/Liveboard\/Ternat\/2018\/01\/07\/23\/56", "id": "BE.NMBS.008812252", "name": "Ternat", "Station_NL": "Ternat", "Station_FR": "Ternat" }, "geometry": { "type": "Point", "coordinates": [ 4.165342, 50.874519 ] } },
{ "type": "Feature", "properties": { "latitude": 50.556742, "longitude": 4.551353, "departures": "https:\/\/data.irail.be\/NMBS\/Liveboard\/Tilly\/2018\/01\/07\/23\/56", "id": "BE.NMBS.008872553", "name": "Tilly", "Station_NL": "Tilly", "Station_FR": "Tilly" }, "geometry": { "type": "Point", "coordinates": [ 4.551353, 50.556742 ] } },
{ "type": "Feature", "properties": { "latitude": 50.691708, "longitude": 4.205725, "departures": "https:\/\/data.irail.be\/NMBS\/Liveboard\/Tubeke\/2018\/01\/07\/23\/56", "id": "BE.NMBS.008883808", "name": "Tubeke", "Station_NL": "Tubeke", "Station_FR": "Tubize" }, "geometry": { "type": "Point", "coordinates": [ 4.205725, 50.691708 ] } },
{ "type": "Feature", "properties": { "latitude": 50.792131, "longitude": 4.331383, "departures": "https:\/\/data.irail.be\/NMBS\/Liveboard\/Uccle Calevoet\/2018\/01\/07\/23\/56", "id": "BE.NMBS.008814134", "name": "Uccle Calevoet", "Station_NL": "Ukkel-Kalevoet", "Station_FR": "Uccle-Calevoet" }, "geometry": { "type": "Point", "coordinates": [ 4.331383, 50.792131 ] } },
{ "type": "Feature", "properties": { "latitude": 50.802431, "longitude": 4.323539, "departures": "https:\/\/data.irail.be\/NMBS\/Liveboard\/Uccle Stalle\/2018\/01\/07\/23\/56", "id": "BE.NMBS.008814126", "name": "Uccle Stalle", "Station_NL": "Ukkel-Stalle", "Station_FR": "Uccle-Stalle" }, "geometry": { "type": "Point", "coordinates": [ 4.323539, 50.802431 ] } },
{ "type": "Feature", "properties": { "latitude": 50.900519, "longitude": 4.633522, "departures": "https:\/\/data.irail.be\/NMBS\/Liveboard\/Veltem\/2018\/01\/07\/23\/56", "id": "BE.NMBS.008811270", "name": "Veltem", "Station_NL": "Veltem", "Station_FR": "Veltem" }, "geometry": { "type": "Point", "coordinates": [ 4.633522, 50.900519 ] } },
{ "type": "Feature", "properties": { "latitude": 50.578028, "longitude": 4.533432, "departures": "https:\/\/data.irail.be\/NMBS\/Liveboard\/Villers La Ville\/2018\/01\/07\/23\/56", "id": "BE.NMBS.008872579", "name": "Villers La Ville", "Station_NL": "Villers-la-Ville", "Station_FR": "Villers-la-Ville" }, "geometry": { "type": "Point", "coordinates": [ 4.533432, 50.578028 ] } },
{ "type": "Feature", "properties": { "latitude": 50.924208, "longitude": 4.432583, "departures": "https:\/\/data.irail.be\/NMBS\/Liveboard\/Vilvoorde\/2018\/01\/07\/23\/56", "id": "BE.NMBS.008811189", "name": "Vilvoorde", "Station_NL": "Vilvoorde", "Station_FR": "Vilvorde" }, "geometry": { "type": "Point", "coordinates": [ 4.432583, 50.924208 ] } },
{ "type": "Feature", "properties": { "latitude": 50.810204, "longitude": 4.320936, "departures": "https:\/\/data.irail.be\/NMBS\/Liveboard\/Vorst East\/2018\/01\/07\/23\/56", "id": "BE.NMBS.008814118", "name": "Vorst East", "Station_NL": "Vorst-Oost", "Station_FR": "Forest-Est" }, "geometry": { "type": "Point", "coordinates": [ 4.320936, 50.810204 ] } },
{ "type": "Feature", "properties": { "latitude": 50.810158, "longitude": 4.310025, "departures": "https:\/\/data.irail.be\/NMBS\/Liveboard\/Vorst South\/2018\/01\/07\/23\/56", "id": "BE.NMBS.008814373", "name": "Vorst South", "Station_NL": "Vorst-Zuid", "Station_FR": "Forest-Midi" }, "geometry": { "type": "Point", "coordinates": [ 4.310025, 50.810158 ] } },
{ "type": "Feature", "properties": { "latitude": 50.715558, "longitude": 4.382925, "departures": "https:\/\/data.irail.be\/NMBS\/Liveboard\/Waterloo\/2018\/01\/07\/23\/56", "id": "BE.NMBS.008814266", "name": "Waterloo", "Station_NL": "Waterloo", "Station_FR": "Waterloo" }, "geometry": { "type": "Point", "coordinates": [ 4.382925, 50.715558 ] } },
{ "type": "Feature", "properties": { "latitude": 50.809691, "longitude": 4.399692, "departures": "https:\/\/data.irail.be\/NMBS\/Liveboard\/Watermaal\/2018\/01\/07\/23\/56", "id": "BE.NMBS.008811429", "name": "Watermaal", "Station_NL": "Watermaal", "Station_FR": "Watermael" }, "geometry": { "type": "Point", "coordinates": [ 4.399692, 50.809691 ] } },
{ "type": "Feature", "properties": { "latitude": 50.716272, "longitude": 4.604783, "departures": "https:\/\/data.irail.be\/NMBS\/Liveboard\/Waver\/2018\/01\/07\/23\/56", "id": "BE.NMBS.008811726", "name": "Waver", "Station_NL": "Waver", "Station_FR": "Wavre" }, "geometry": { "type": "Point", "coordinates": [ 4.604783, 50.716272 ] } },
{ "type": "Feature", "properties": { "latitude": 50.977411, "longitude": 4.470292, "departures": "https:\/\/data.irail.be\/NMBS\/Liveboard\/Weerde\/2018\/01\/07\/23\/56", "id": "BE.NMBS.008822251", "name": "Weerde", "Station_NL": "Weerde", "Station_FR": "Weerde" }, "geometry": { "type": "Point", "coordinates": [ 4.470292, 50.977411 ] } },
{ "type": "Feature", "properties": { "latitude": 50.958297, "longitude": 4.637489, "departures": "https:\/\/data.irail.be\/NMBS\/Liveboard\/Wespelaar Tildonk\/2018\/01\/07\/23\/56", "id": "BE.NMBS.008822525", "name": "Wespelaar Tildonk", "Station_NL": "Wespelaar-Tildonk", "Station_FR": "Wespelaar-Tildonk" }, "geometry": { "type": "Point", "coordinates": [ 4.637489, 50.958297 ] } },
{ "type": "Feature", "properties": { "latitude": 50.956206, "longitude": 4.748314, "departures": "https:\/\/data.irail.be\/NMBS\/Liveboard\/Wezemaal\/2018\/01\/07\/23\/56", "id": "BE.NMBS.008833233", "name": "Wezemaal", "Station_NL": "Wezemaal", "Station_FR": "Wezemaal" }, "geometry": { "type": "Point", "coordinates": [ 4.748314, 50.956206 ] } },
{ "type": "Feature", "properties": { "latitude": 50.923017, "longitude": 4.700242, "departures": "https:\/\/data.irail.be\/NMBS\/Liveboard\/Wijgmaal\/2018\/01\/07\/23\/56", "id": "BE.NMBS.008833175", "name": "Wijgmaal", "Station_NL": "Wijgmaal", "Station_FR": "Wijgmaal" }, "geometry": { "type": "Point", "coordinates": [ 4.700242, 50.923017 ] } },
{ "type": "Feature", "properties": { "latitude": 50.88572, "longitude": 4.469886, "departures": "https:\/\/data.irail.be\/NMBS\/Liveboard\/Zaventem\/2018\/01\/07\/23\/56", "id": "BE.NMBS.008811221", "name": "Zaventem", "Station_NL": "Zaventem", "Station_FR": "Zaventem" }, "geometry": { "type": "Point", "coordinates": [ 4.469886, 50.88572 ] } },
{ "type": "Feature", "properties": { "latitude": 50.889731, "longitude": 4.275583, "departures": "https:\/\/data.irail.be\/NMBS\/Liveboard\/Zellik\/2018\/01\/07\/23\/56", "id": "BE.NMBS.008812062", "name": "Zellik", "Station_NL": "Zellik", "Station_FR": "Zellik" }, "geometry": { "type": "Point", "coordinates": [ 4.275583, 50.889731 ] } },
{ "type": "Feature", "properties": { "latitude": 50.817933850586741, "longitude": 4.2918107303465627, "departures": null, "id": null, "name": null, "Station_NL": "Anderlecht", "Station_FR": "Anderlecht" }, "geometry": { "type": "Point", "coordinates": [ 4.291810730346563, 50.817933850586741 ] } },
{ "type": "Feature", "properties": { "latitude": 50.849060620139412, "longitude": 4.3212985992881938, "departures": null, "id": null, "name": null, "Station_NL": "Brussel-West", "Station_FR": "Bruxelles-Ouest" }, "geometry": { "type": "Point", "coordinates": [ 4.321298599288194, 50.849060620139404 ] } },
{ "type": "Feature", "properties": { "latitude": 50.873202811006522, "longitude": 4.3422125825507631, "departures": null, "id": null, "name": null, "Station_NL": "Thurn-en-Taxis", "Station_FR": "Tour-et-Taxis" }, "geometry": { "type": "Point", "coordinates": [ 4.342212582550763, 50.873202811006522 ] } },
{ "type": "Feature", "properties": { "latitude": 50.809705092201831, "longitude": 4.3983252834565612, "departures": null, "id": null, "name": null, "Station_NL": "Arcaden", "Station_FR": "Arcades" }, "geometry": { "type": "Point", "coordinates": [ 4.398325283456559, 50.809705092201831 ] } },
{ "type": "Feature", "properties": { "latitude": 50.796094715710446, "longitude": 4.3721909597466198, "departures": null, "id": null, "name": null, "Station_NL": "Diesdelle", "Station_FR": "Vivier d'Oie" }, "geometry": { "type": "Point", "coordinates": [ 4.37219095974662, 50.796094715710446 ] } },
{ "type": "Feature", "properties": { "latitude": 50.610213312451656, "longitude": 4.5395389058002182, "departures": null, "id": null, "name": null, "Station_NL": "La Roche (brabant)", "Station_FR": "La Roche (brabant)" }, "geometry": { "type": "Point", "coordinates": [ 4.539538905800217, 50.610213312451656 ] } },
{ "type": "Feature", "properties": { "latitude": 50.669718301839154, "longitude": 4.6161016260554204, "departures": null, "id": null, "name": null, "Station_NL": "Louvain-la-Neuve", "Station_FR": "Louvain-la-Neuve" }, "geometry": { "type": "Point", "coordinates": [ 4.61610162605542, 50.669718301839154 ] } },
{ "type": "Feature", "properties": { "latitude": 50.831131027472573, "longitude": 4.3785364847117991, "departures": null, "id": null, "name": null, "Station_NL": "Mouterij", "Station_FR": "Germoir" }, "geometry": { "type": "Point", "coordinates": [ 4.378536484711799, 50.83113102747258 ] } }
]
}
